{
  "type": "FeatureCollection",
  "features": [
    {
      "type": "Feature",
      "properties": {
        "norad_id": 33412,
        "name": "COSMO-SKYMED 3",
        "group": "resource",
        "lat": 7.809870555804485,
        "lon": 16.146858417130886,
        "alt_km": 541.6060709852081,
        "timestamp": "2025-12-10T16:57:11.291387+00:00",
        "meta_object_name": "COSMO-SKYMED 3",
        "meta_object_id": "2008-054A",
        "meta_epoch": "2025-12-10T13:00:02.335680",
        "meta_mean_motion": 15.05318104,
        "meta_eccentricity": 0.0015923,
        "meta_inclination": 97.8463,
        "meta_ra_of_asc_node": 194.8957,
        "meta_arg_of_pericenter": 181.5539,
        "meta_mean_anomaly": 178.564,
        "meta_ephemeris_type": 0,
        "meta_classification_type": "U",
        "meta_norad_cat_id": 33412,
        "meta_element_set_no": 999,
        "meta_rev_at_epoch": 92854,
        "meta_bstar": 0.00043602,
        "meta_mean_motion_dot": 6.194e-05,
        "meta_mean_motion_ddot": 0,
        "tle_line1": "1 33412U 08054A   25344.54169370  .00006194  00000+0  43602-3 0  9990",
        "tle_line2": "2 33412  97.8463 194.8957 0015923 181.5539 178.5640 15.05318104928544"
      },
      "geometry": {
        "type": "Point",
        "coordinates": [
          16.146858417130886,
          7.809870555804485
        ]
      }
    },
    {
      "type": "Feature",
      "properties": {
        "norad_id": 33446,
        "name": "YAOGAN-4",
        "group": "resource",
        "lat": -40.674031332694156,
        "lon": -78.3054376551849,
        "alt_km": 618.0162780184664,
        "timestamp": "2025-12-10T16:57:11.291399+00:00",
        "meta_object_name": "YAOGAN-4",
        "meta_object_id": "2008-061A",
        "meta_epoch": "2025-12-10T09:02:22.074432",
        "meta_mean_motion": 14.82671071,
        "meta_eccentricity": 0.0013772,
        "meta_inclination": 97.918,
        "meta_ra_of_asc_node": 274.4991,
        "meta_arg_of_pericenter": 331.4072,
        "meta_mean_anomaly": 28.6385,
        "meta_ephemeris_type": 0,
        "meta_classification_type": "U",
        "meta_norad_cat_id": 33446,
        "meta_element_set_no": 999,
        "meta_rev_at_epoch": 91768,
        "meta_bstar": 0.0003126,
        "meta_mean_motion_dot": 2.471e-05,
        "meta_mean_motion_ddot": 0,
        "tle_line1": "1 33446U 08061A   25344.37664438  .00002471  00000+0  31260-3 0  9992",
        "tle_line2": "2 33446  97.9180 274.4991 0013772 331.4072  28.6385 14.82671071917682"
      },
      "geometry": {
        "type": "Point",
        "coordinates": [
          -78.3054376551849,
          -40.674031332694156
        ]
      }
    },
    {
      "type": "Feature",
      "properties": {
        "norad_id": 33492,
        "name": "GOSAT (IBUKI)",
        "group": "resource",
        "lat": 57.462056392611935,
        "lon": -73.8018685226843,
        "alt_km": 662.8261722672542,
        "timestamp": "2025-12-10T16:57:11.291409+00:00",
        "meta_object_name": "GOSAT (IBUKI)",
        "meta_object_id": "2009-002A",
        "meta_epoch": "2025-12-10T06:34:58.841760",
        "meta_mean_motion": 14.6754762,
        "meta_eccentricity": 9.44e-05,
        "meta_inclination": 98.0768,
        "meta_ra_of_asc_node": 92.9119,
        "meta_arg_of_pericenter": 89.0594,
        "meta_mean_anomaly": 271.0719,
        "meta_ephemeris_type": 0,
        "meta_classification_type": "U",
        "meta_norad_cat_id": 33492,
        "meta_element_set_no": 999,
        "meta_rev_at_epoch": 90375,
        "meta_bstar": 0.00027075,
        "meta_mean_motion_dot": 1.488e-05,
        "meta_mean_motion_ddot": 0,
        "tle_line1": "1 33492U 09002A   25344.27429215  .00001488  00000+0  27075-3 0  9996",
        "tle_line2": "2 33492  98.0768  92.9119 0000944  89.0594 271.0719 14.67547620903757"
      },
      "geometry": {
        "type": "Point",
        "coordinates": [
          -73.8018685226843,
          57.462056392611935
        ]
      }
    },
    {
      "type": "Feature",
      "properties": {
        "norad_id": 35681,
        "name": "DEIMOS-1",
        "group": "resource",
        "lat": 34.2049516695993,
        "lon": -29.308957022001863,
        "alt_km": 642.2735732780129,
        "timestamp": "2025-12-10T16:57:11.291420+00:00",
        "meta_object_name": "DEIMOS-1",
        "meta_object_id": "2009-041A",
        "meta_epoch": "2025-12-10T11:24:43.542144",
        "meta_mean_motion": 14.74946165,
        "meta_eccentricity": 0.0002742,
        "meta_inclination": 97.7148,
        "meta_ra_of_asc_node": 145.1841,
        "meta_arg_of_pericenter": 83.0149,
        "meta_mean_anomaly": 277.1373,
        "meta_ephemeris_type": 0,
        "meta_classification_type": "U",
        "meta_norad_cat_id": 35681,
        "meta_element_set_no": 999,
        "meta_rev_at_epoch": 87906,
        "meta_bstar": 0.00014099,
        "meta_mean_motion_dot": 9e-06,
        "meta_mean_motion_ddot": 0,
        "tle_line1": "1 35681U 09041A   25344.47550396  .00000900  00000+0  14099-3 0  9998",
        "tle_line2": "2 35681  97.7148 145.1841 0002742  83.0149 277.1373 14.74946165879062"
      },
      "geometry": {
        "type": "Point",
        "coordinates": [
          -29.308957022001863,
          34.2049516695993
        ]
      }
    },
    {
      "type": "Feature",
      "properties": {
        "norad_id": 35682,
        "name": "DUBAISAT-1",
        "group": "resource",
        "lat": 79.25399279145228,
        "lon": 67.76566120232108,
        "alt_km": 642.6065208987111,
        "timestamp": "2025-12-10T16:57:11.291430+00:00",
        "meta_object_name": "DUBAISAT-1",
        "meta_object_id": "2009-041B",
        "meta_epoch": "2025-12-10T08:26:11.389344",
        "meta_mean_motion": 14.7459351,
        "meta_eccentricity": 0.0009733,
        "meta_inclination": 97.9789,
        "meta_ra_of_asc_node": 115.0665,
        "meta_arg_of_pericenter": 322.8168,
        "meta_mean_anomaly": 37.2365,
        "meta_ephemeris_type": 0,
        "meta_classification_type": "U",
        "meta_norad_cat_id": 35682,
        "meta_element_set_no": 999,
        "meta_rev_at_epoch": 87726,
        "meta_bstar": 0.00034556,
        "meta_mean_motion_dot": 2.254e-05,
        "meta_mean_motion_ddot": 0,
        "tle_line1": "1 35682U 09041B   25344.35152071  .00002254  00000+0  34556-3 0  9998",
        "tle_line2": "2 35682  97.9789 115.0665 0009733 322.8168  37.2365 14.74593510877266"
      },
      "geometry": {
        "type": "Point",
        "coordinates": [
          67.76566120232108,
          79.25399279145228
        ]
      }
    },
    {
      "type": "Feature",
      "properties": {
        "norad_id": 35931,
        "name": "OCEANSAT-2",
        "group": "resource",
        "lat": 81.620993878759,
        "lon": -93.49689721780298,
        "alt_km": 878.2961273397041,
        "timestamp": "2025-12-10T16:57:11.291441+00:00",
        "meta_object_name": "OCEANSAT-2",
        "meta_object_id": "2009-051A",
        "meta_epoch": "2025-12-10T11:23:11.248800",
        "meta_mean_motion": 13.99625173,
        "meta_eccentricity": 0.0016296,
        "meta_inclination": 98.2224,
        "meta_ra_of_asc_node": 345.3049,
        "meta_arg_of_pericenter": 50.9846,
        "meta_mean_anomaly": 309.2769,
        "meta_ephemeris_type": 0,
        "meta_classification_type": "U",
        "meta_norad_cat_id": 35931,
        "meta_element_set_no": 999,
        "meta_rev_at_epoch": 85293,
        "meta_bstar": -7.4143e-05,
        "meta_mean_motion_dot": -1.46e-06,
        "meta_mean_motion_ddot": 0,
        "tle_line1": "1 35931U 09051A   25344.47443575 -.00000146  00000+0 -74143-4 0  9998",
        "tle_line2": "2 35931  98.2224 345.3049 0016296  50.9846 309.2769 13.99625173852933"
      },
      "geometry": {
        "type": "Point",
        "coordinates": [
          -93.49689721780298,
          81.620993878759
        ]
      }
    },
    {
      "type": "Feature",
      "properties": {
        "norad_id": 35946,
        "name": "WORLDVIEW-2 (WV-2)",
        "group": "resource",
        "lat": -67.22298632798339,
        "lon": 76.62122876368373,
        "alt_km": 776.4433250425718,
        "timestamp": "2025-12-10T16:57:11.291451+00:00",
        "meta_object_name": "WORLDVIEW-2 (WV-2)",
        "meta_object_id": "2009-055A",
        "meta_epoch": "2025-12-10T12:15:41.912928",
        "meta_mean_motion": 14.3765127,
        "meta_eccentricity": 0.0005342,
        "meta_inclination": 98.4762,
        "meta_ra_of_asc_node": 55.626,
        "meta_arg_of_pericenter": 72.3233,
        "meta_mean_anomaly": 287.8537,
        "meta_ephemeris_type": 0,
        "meta_classification_type": "U",
        "meta_norad_cat_id": 35946,
        "meta_element_set_no": 999,
        "meta_rev_at_epoch": 84853,
        "meta_bstar": 0.00011558,
        "meta_mean_motion_dot": 3.04e-06,
        "meta_mean_motion_ddot": 0,
        "tle_line1": "1 35946U 09055A   25344.51090177  .00000304  00000+0  11558-3 0  9993",
        "tle_line2": "2 35946  98.4762  55.6260 0005342  72.3233 287.8537 14.37651270848537"
      },
      "geometry": {
        "type": "Point",
        "coordinates": [
          76.62122876368373,
          -67.22298632798339
        ]
      }
    }
  ]
}